{
  "type": "FeatureCollection",
  "features": [
    {
      "type": "Feature",
      "properties": {
        "norad_id": 37846,
        "name": "GSAT0101 (GALILEO-PFM)",
        "group": "galileo",
        "lat": -49.794314115573044,
        "lon": -142.7867180891144,
        "alt_km": 23224.06635220205,
        "timestamp": "2025-12-02T17:49:12.290673+00:00",
        "meta_object_name": "GSAT0101 (GALILEO-PFM)",
        "meta_object_id": "2011-060A",
        "meta_epoch": "2025-11-24T03:07:29.832960",
        "meta_mean_motion": 1.70475782,
        "meta_eccentricity": 0.00025776,
        "meta_inclination": 57.0574,
        "meta_ra_of_asc_node": 347.3256,
        "meta_arg_of_pericenter": 308.2281,
        "meta_mean_anomaly": 51.7929,
        "meta_ephemeris_type": 0,
        "meta_classification_type": "U",
        "meta_norad_cat_id": 37846,
        "meta_element_set_no": 999,
        "meta_rev_at_epoch": 8762,
        "meta_bstar": 0,
        "meta_mean_motion_dot": -6.3e-07,
        "meta_mean_motion_ddot": 0,
        "tle_line1": "1 37846U 11060A   25328.13020640 -.00000063  00000+0  00000+0 0  9990",
        "tle_line2": "2 37846  57.0574 347.3256 0002577 308.2281  51.7929  1.70475782 87620"
      },
      "geometry": {
        "type": "Point",
        "coordinates": [
          -142.7867180891144,
          -49.794314115573044
        ]
      }
    },
    {
      "type": "Feature",
      "properties": {
        "norad_id": 37847,
        "name": "GSAT0102 (GALILEO-FM2)",
        "group": "galileo",
        "lat": -51.56383143346179,
        "lon": -67.70605692944474,
        "alt_km": 23214.113299021108,
        "timestamp": "2025-12-02T17:49:12.290696+00:00",
        "meta_object_name": "GSAT0102 (GALILEO-FM2)",
        "meta_object_id": "2011-060B",
        "meta_epoch": "2025-12-02T06:27:38.703744",
        "meta_mean_motion": 1.70475743,
        "meta_eccentricity": 0.0004752,
        "meta_inclination": 57.0559,
        "meta_ra_of_asc_node": 347.1049,
        "meta_arg_of_pericenter": 306.1199,
        "meta_mean_anomaly": 54.4344,
        "meta_ephemeris_type": 0,
        "meta_classification_type": "U",
        "meta_norad_cat_id": 37847,
        "meta_element_set_no": 999,
        "meta_rev_at_epoch": 8777,
        "meta_bstar": 0,
        "meta_mean_motion_dot": -6.2e-07,
        "meta_mean_motion_ddot": 0,
        "tle_line1": "1 37847U 11060B   25336.26919796 -.00000062  00000+0  00000+0 0  9992",
        "tle_line2": "2 37847  57.0559 347.1049 0004752 306.1199  54.4344  1.70475743 87778"
      },
      "geometry": {
        "type": "Point",
        "coordinates": [
          -67.70605692944474,
          -51.56383143346179
        ]
      }
    },
    {
      "type": "Feature",
      "properties": {
        "norad_id": 38857,
        "name": "GSAT0103 (GALILEO-FM3)",
        "group": "galileo",
        "lat": -32.79362608487766,
        "lon": -46.987367160409356,
        "alt_km": 23221.75389314698,
        "timestamp": "2025-12-02T17:49:12.290711+00:00",
        "meta_object_name": "GSAT0103 (GALILEO-FM3)",
        "meta_object_id": "2012-055A",
        "meta_epoch": "2025-11-28T20:42:38.723616",
        "meta_mean_motion": 1.70473322,
        "meta_eccentricity": 0.00022412,
        "meta_inclination": 55.6842,
        "meta_ra_of_asc_node": 107.0477,
        "meta_arg_of_pericenter": 266.7022,
        "meta_mean_anomaly": 93.2527,
        "meta_ephemeris_type": 0,
        "meta_classification_type": "U",
        "meta_norad_cat_id": 38857,
        "meta_element_set_no": 999,
        "meta_rev_at_epoch": 8159,
        "meta_bstar": 0,
        "meta_mean_motion_dot": 5.5e-07,
        "meta_mean_motion_ddot": 0,
        "tle_line1": "1 38857U 12055A   25332.86294819  .00000055  00000+0  00000+0 0  9994",
        "tle_line2": "2 38857  55.6842 107.0477 0002241 266.7022  93.2527  1.70473322 81593"
      },
      "geometry": {
        "type": "Point",
        "coordinates": [
          -46.987367160409356,
          -32.79362608487766
        ]
      }
    },
    {
      "type": "Feature",
      "properties": {
        "norad_id": 40128,
        "name": "GSAT0201 (GALILEO 5)",
        "group": "galileo",
        "lat": 20.674905882594228,
        "lon": -59.477885028669725,
        "alt_km": 25019.024286567757,
        "timestamp": "2025-12-02T17:49:12.290724+00:00",
        "meta_object_name": "GSAT0201 (GALILEO 5)",
        "meta_object_id": "2014-050A",
        "meta_epoch": "2025-11-28T09:00:06.762528",
        "meta_mean_motion": 1.85519533,
        "meta_eccentricity": 0.16464881,
        "meta_inclination": 49.0938,
        "meta_ra_of_asc_node": 281.6492,
        "meta_arg_of_pericenter": 171.7362,
        "meta_mean_anomaly": 191.3851,
        "meta_ephemeris_type": 0,
        "meta_classification_type": "U",
        "meta_norad_cat_id": 40128,
        "meta_element_set_no": 999,
        "meta_rev_at_epoch": 7459,
        "meta_bstar": 0,
        "meta_mean_motion_dot": -4.8e-07,
        "meta_mean_motion_ddot": 0,
        "tle_line1": "1 40128U 14050A   25332.37507827 -.00000048  00000+0  00000+0 0  9990",
        "tle_line2": "2 40128  49.0938 281.6492 1646488 171.7362 191.3851  1.85519533 74599"
      },
      "geometry": {
        "type": "Point",
        "coordinates": [
          -59.477885028669725,
          20.674905882594228
        ]
      }
    },
    {
      "type": "Feature",
      "properties": {
        "norad_id": 40129,
        "name": "GSAT0202 (GALILEO 6)",
        "group": "galileo",
        "lat": -43.75693368896187,
        "lon": 156.50711495736854,
        "alt_km": 19634.050827362247,
        "timestamp": "2025-12-02T17:49:12.290736+00:00",
        "meta_object_name": "GSAT0202 (GALILEO 6)",
        "meta_object_id": "2014-050B",
        "meta_epoch": "2025-11-29T17:01:27.924672",
        "meta_mean_motion": 1.85520097,
        "meta_eccentricity": 0.1647266,
        "meta_inclination": 49.1079,
        "meta_ra_of_asc_node": 280.6784,
        "meta_arg_of_pericenter": 172.5408,
        "meta_mean_anomaly": 190.2825,
        "meta_ephemeris_type": 0,
        "meta_classification_type": "U",
        "meta_norad_cat_id": 40129,
        "meta_element_set_no": 999,
        "meta_rev_at_epoch": 7678,
        "meta_bstar": 0,
        "meta_mean_motion_dot": -5.4e-07,
        "meta_mean_motion_ddot": 0,
        "tle_line1": "1 40129U 14050B   25333.70935098 -.00000054  00000+0  00000+0 0  9991",
        "tle_line2": "2 40129  49.1079 280.6784 1647266 172.5408 190.2825  1.85520097 76784"
      },
      "geometry": {
        "type": "Point",
        "coordinates": [
          156.50711495736854,
          -43.75693368896187
        ]
      }
    },
    {
      "type": "Feature",
      "properties": {
        "norad_id": 40544,
        "name": "GSAT0203 (GALILEO 7)",
        "group": "galileo",
        "lat": 18.050969423659886,
        "lon": -0.7388454087425652,
        "alt_km": 23227.839387022766,
        "timestamp": "2025-12-02T17:49:12.290747+00:00",
        "meta_object_name": "GSAT0203 (GALILEO 7)",
        "meta_object_id": "2015-017A",
        "meta_epoch": "2025-12-02T02:53:32.217792",
        "meta_mean_motion": 1.70475823,
        "meta_eccentricity": 0.00065177,
        "meta_inclination": 56.8491,
        "meta_ra_of_asc_node": 346.9701,
        "meta_arg_of_pericenter": 267.4937,
        "meta_mean_anomaly": 92.4718,
        "meta_ephemeris_type": 0,
        "meta_classification_type": "U",
        "meta_norad_cat_id": 40544,
        "meta_element_set_no": 999,
        "meta_rev_at_epoch": 6584,
        "meta_bstar": 0,
        "meta_mean_motion_dot": -6.2e-07,
        "meta_mean_motion_ddot": 0,
        "tle_line1": "1 40544U 15017A   25336.12051178 -.00000062  00000+0  00000+0 0  9992",
        "tle_line2": "2 40544  56.8491 346.9701 0006517 267.4937  92.4718  1.70475823 65840"
      },
      "geometry": {
        "type": "Point",
        "coordinates": [
          -0.7388454087425652,
          18.050969423659886
        ]
      }
    },
    {
      "type": "Feature",
      "properties": {
        "norad_id": 40545,
        "name": "GSAT0204 (GALILEO 8)",
        "group": "galileo",
        "lat": -36.2079819813579,
        "lon": -164.43566429378507,
        "alt_km": 23211.28802162743,
        "timestamp": "2025-12-02T17:49:12.290759+00:00",
        "meta_object_name": "GSAT0204 (GALILEO 8)",
        "meta_object_id": "2015-017B",
        "meta_epoch": "2025-12-01T18:56:42.196992",
        "meta_mean_motion": 1.70475405,
        "meta_eccentricity": 0.00062658,
        "meta_inclination": 56.854,
        "meta_ra_of_asc_node": 346.9967,
        "meta_arg_of_pericenter": 260.0885,
        "meta_mean_anomaly": 99.8817,
        "meta_ephemeris_type": 0,
        "meta_classification_type": "U",
        "meta_norad_cat_id": 40545,
        "meta_element_set_no": 999,
        "meta_rev_at_epoch": 2888,
        "meta_bstar": 0,
        "meta_mean_motion_dot": -6.1e-07,
        "meta_mean_motion_ddot": 0,
        "tle_line1": "1 40545U 15017B   25335.78937728 -.00000061  00000+0  00000+0 0  9997",
        "tle_line2": "2 40545  56.8540 346.9967 0006265 260.0885  99.8817  1.70475405 28881"
      },
      "geometry": {
        "type": "Point",
        "coordinates": [
          -164.43566429378507,
          -36.2079819813579
        ]
      }
    }
  ]
}